[{"OBJECT_NAME":"FENGYUN 1C DEB","OBJECT_ID":"1999-025DND","EPOCH":"2026-02-28T23:41:59.631072","MEAN_MOTION":13.37638949,"ECCENTRICITY":0.04851335,"INCLINATION":99.7823,"RA_OF_ASC_NODE":133.821,"ARG_OF_PERICENTER":23.2306,"MEAN_ANOMALY":338.9968,"EPHEMERIS_TYPE":0,"CLASSIFICATION_TYPE":"U","NORAD_CAT_ID":35173,"ELEMENT_SET_NO":999,"REV_AT_EPOCH":66875,"BSTAR":0.001454587,"MEAN_MOTION_DOT":1.467e-5,"MEAN_MOTION_DDOT":0},{"OBJECT_NAME":"FENGYUN 1C DEB","OBJECT_ID":"1999-025DNE","EPOCH":"2026-02-25T04:58:37.401312","MEAN_MOTION":15.05222561,"ECCENTRICITY":0.0133464,"INCLINATION":98.9651,"RA_OF_ASC_NODE":46.9713,"ARG_OF_PERICENTER":302.0575,"MEAN_ANOMALY":56.7743,"EPHEMERIS_TYPE":0,"CLASSIFICATION_TYPE":"U","NORAD_CAT_ID":35174,"ELEMENT_SET_NO":999,"REV_AT_EPOCH":91283,"BSTAR":0.0023504,"MEAN_MOTION_DOT":0.00041097,"MEAN_MOTION_DDOT":0},{"OBJECT_NAME":"FENGYUN 1C DEB","OBJECT_ID":"1999-025DNF","EPOCH":"2026-02-07T18:16:24.363840","MEAN_MOTION":14.21410964,"ECCENTRICITY":0.00588425,"INCLINATION":98.5776,"RA_OF_ASC_NODE":50.4675,"ARG_OF_PERICENTER":114.3565,"MEAN_ANOMALY":246.3771,"EPHEMERIS_TYPE":0,"CLASSIFICATION_TYPE":"U","NORAD_CAT_ID":35175,"ELEMENT_SET_NO":999,"REV_AT_EPOCH":62045,"BSTAR":0.00039140678,"MEAN_MOTION_DOT":8.28e-6,"MEAN_MOTION_DDOT":0},{"OBJECT_NAME":"FENGYUN 1C DEB","OBJECT_ID":"1999-025DNG","EPOCH":"2026-03-06T04:42:06.867648","MEAN_MOTION":14.1714244,"ECCENTRICITY":0.00534503,"INCLINATION":98.5656,"RA_OF_ASC_NODE":53.85,"ARG_OF_PERICENTER":174.5501,"MEAN_ANOMALY":185.6268,"EPHEMERIS_TYPE":0,"CLASSIFICATION_TYPE":"U","NORAD_CAT_ID":35176,"ELEMENT_SET_NO":999,"REV_AT_EPOCH":92110,"BSTAR":0.00038563773,"MEAN_MOTION_DOT":7.46e-6,"MEAN_MOTION_DDOT":0},{"OBJECT_NAME":"FENGYUN 1C DEB","OBJECT_ID":"1999-025DNL","EPOCH":"2026-03-02T06:15:56.689920","MEAN_MOTION":13.75865754,"ECCENTRICITY":0.0493084,"INCLINATION":99.7275,"RA_OF_ASC_NODE":228.6042,"ARG_OF_PERICENTER":171.9601,"MEAN_ANOMALY":188.9833,"EPHEMERIS_TYPE":0,"CLASSIFICATION_TYPE":"U","NORAD_CAT_ID":35180,"ELEMENT_SET_NO":999,"REV_AT_EPOCH":1127,"BSTAR":0.0073764094,"MEAN_MOTION_DOT":0.00017553,"MEAN_MOTION_DDOT":0},{"OBJECT_NAME":"FENGYUN 1C DEB","OBJECT_ID":"1999-025DNX","EPOCH":"2026-02-27T16:00:09.606240","MEAN_MOTION":13.91249425,"ECCENTRICITY":0.01029729,"INCLINATION":99.0255,"RA_OF_ASC_NODE":43.3879,"ARG_OF_PERICENTER":0.5183,"MEAN_ANOMALY":359.6066,"EPHEMERIS_TYPE":0,"CLASSIFICATION_TYPE":"U","NORAD_CAT_ID":35191,"ELEMENT_SET_NO":999,"REV_AT_EPOCH":88971,"BSTAR":0.00026106597,"MEAN_MOTION_DOT":3.0e-6,"MEAN_MOTION_DDOT":0},{"OBJECT_NAME":"FENGYUN 1C DEB","OBJECT_ID":"1999-025DPA","EPOCH":"2026-03-03T11:52:16.983264","MEAN_MOTION":14.61170215,"ECCENTRICITY":0.01128212,"INCLINATION":98.9395,"RA_OF_ASC_NODE":157.2539,"ARG_OF_PERICENTER":188.398,"MEAN_ANOMALY":171.5333,"EPHEMERIS_TYPE":0,"CLASSIFICATION_TYPE":"U","NORAD_CAT_ID":35194,"ELEMENT_SET_NO":999,"REV_AT_EPOCH":66569,"BSTAR":0.0014391564,"MEAN_MOTION_DOT":7.702e-5,"MEAN_MOTION_DDOT":0},{"OBJECT_NAME":"FENGYUN 1C DEB","OBJECT_ID":"1999-025DPB","EPOCH":"2026-03-06T01:38:46.827456","MEAN_MOTION":14.56819158,"ECCENTRICITY":0.01025345,"INCLINATION":98.9778,"RA_OF_ASC_NODE":170.7771,"ARG_OF_PERICENTER":175.0476,"MEAN_ANOMALY":185.1759,"EPHEMERIS_TYPE":0,"CLASSIFICATION_TYPE":"U","NORAD_CAT_ID":35195,"ELEMENT_SET_NO":999,"REV_AT_EPOCH":92139,"BSTAR":0.0013244122,"MEAN_MOTION_DOT":6.319e-5,"MEAN_MOTION_DDOT":0},{"OBJECT_NAME":"FENGYUN 1C DEB","OBJECT_ID":"1999-025DPC","EPOCH":"2026-03-06T12:25:11.833248","MEAN_MOTION":14.20159463,"ECCENTRICITY":0.02152969,"INCLINATION":98.5336,"RA_OF_ASC_NODE":82.7914,"ARG_OF_PERICENTER":95.355,"MEAN_ANOMALY":55.8923,"EPHEMERIS_TYPE":0,"CLASSIFICATION_TYPE":"U","NORAD_CAT_ID":35196,"ELEMENT_SET_NO":999,"REV_AT_EPOCH":90323,"BSTAR":0.00093644019,"MEAN_MOTION_DOT":2.479e-5,"MEAN_MOTION_DDOT":0},{"OBJECT_NAME":"FENGYUN 1C DEB","OBJECT_ID":"1999-025DPG","EPOCH":"2026-03-06T08:54:08.516160","MEAN_MOTION":13.42025971,"ECCENTRICITY":0.03515426,"INCLINATION":98.8828,"RA_OF_ASC_NODE":37.8468,"ARG_OF_PERICENTER":209.4886,"MEAN_ANOMALY":311.3024,"EPHEMERIS_TYPE":0,"CLASSIFICATION_TYPE":"U","NORAD_CAT_ID":35200,"ELEMENT_SET_NO":999,"REV_AT_EPOCH":67025,"BSTAR":0.00027797121,"MEAN_MOTION_DOT":1.87e-6,"MEAN_MOTION_DDOT":0},{"OBJECT_NAME":"FENGYUN 1C DEB","OBJECT_ID":"1999-025DPH","EPOCH":"2026-03-06T19:47:43.051776","MEAN_MOTION":14.11090765,"ECCENTRICITY":0.000712,"INCLINATION":98.7083,"RA_OF_ASC_NODE":77.3038,"ARG_OF_PERICENTER":22.7204,"MEAN_ANOMALY":102.8715,"EPHEMERIS_TYPE":0,"CLASSIFICATION_TYPE":"U","NORAD_CAT_ID":35201,"ELEMENT_SET_NO":999,"REV_AT_EPOCH":88205,"BSTAR":0.00013954,"MEAN_MOTION_DOT":2.09e-6,"MEAN_MOTION_DDOT":0},{"OBJECT_NAME":"FENGYUN 1C DEB","OBJECT_ID":"1999-025DPJ","EPOCH":"2026-03-06T14:07:19.487136","MEAN_MOTION":13.34858724,"ECCENTRICITY":0.03796673,"INCLINATION":100.0815,"RA_OF_ASC_NODE":114.6459,"ARG_OF_PERICENTER":167.8595,"MEAN_ANOMALY":193.2001,"EPHEMERIS_TYPE":0,"CLASSIFICATION_TYPE":"U","NORAD_CAT_ID":35202,"ELEMENT_SET_NO":999,"REV_AT_EPOCH":58095,"BSTAR":0.0011486639,"MEAN_MOTION_DOT":8.26e-6,"MEAN_MOTION_DDOT":0},{"OBJECT_NAME":"FENGYUN 1C DEB","OBJECT_ID":"1999-025DPK","EPOCH":"2026-02-24T03:37:33.539232","MEAN_MOTION":13.26717067,"ECCENTRICITY":0.05208111,"INCLINATION":102.0787,"RA_OF_ASC_NODE":39.3394,"ARG_OF_PERICENTER":358.9561,"MEAN_ANOMALY":1.043,"EPHEMERIS_TYPE":0,"CLASSIFICATION_TYPE":"U","NORAD_CAT_ID":35203,"ELEMENT_SET_NO":999,"REV_AT_EPOCH":60624,"BSTAR":0.001673672,"MEAN_MOTION_DOT":1.498e-5,"MEAN_MOTION_DDOT":0},{"OBJECT_NAME":"FENGYUN 1C DEB","OBJECT_ID":"1999-025DPL","EPOCH":"2026-03-06T12:30:02.234880","MEAN_MOTION":14.50416392,"ECCENTRICITY":0.00376771,"INCLINATION":99.0072,"RA_OF_ASC_NODE":264.7598,"ARG_OF_PERICENTER":72.717,"MEAN_ANOMALY":316.0696,"EPHEMERIS_TYPE":0,"CLASSIFICATION_TYPE":"U","NORAD_CAT_ID":35204,"ELEMENT_SET_NO":999,"REV_AT_EPOCH":92144,"BSTAR":0.0021419491,"MEAN_MOTION_DOT":8.402e-5,"MEAN_MOTION_DDOT":0},{"OBJECT_NAME":"FENGYUN 1C DEB","OBJECT_ID":"1999-025DPP","EPOCH":"2026-03-03T06:17:39.263136","MEAN_MOTION":14.57105326,"ECCENTRICITY":0.00514387,"INCLINATION":98.6847,"RA_OF_ASC_NODE":168.9373,"ARG_OF_PERICENTER":10.3821,"MEAN_ANOMALY":349.8426,"EPHEMERIS_TYPE":0,"CLASSIFICATION_TYPE":"U","NORAD_CAT_ID":35207,"ELEMENT_SET_NO":999,"REV_AT_EPOCH":66076,"BSTAR":0.001883531,"MEAN_MOTION_DOT":8.599e-5,"MEAN_MOTION_DDOT":0},{"OBJECT_NAME":"FENGYUN 1C DEB","OBJECT_ID":"1999-025DPQ","EPOCH":"2026-03-02T07:05:20.562432","MEAN_MOTION":13.99956473,"ECCENTRICITY":0.01004142,"INCLINATION":98.8985,"RA_OF_ASC_NODE":83.319,"ARG_OF_PERICENTER":295.0754,"MEAN_ANOMALY":64.0015,"EPHEMERIS_TYPE":0,"CLASSIFICATION_TYPE":"U","NORAD_CAT_ID":35208,"ELEMENT_SET_NO":999,"REV_AT_EPOCH":91676,"BSTAR":0.0010290798,"MEAN_MOTION_DOT":1.536e-5,"MEAN_MOTION_DDOT":0},{"OBJECT_NAME":"FENGYUN 1C DEB","OBJECT_ID":"1999-025DPS","EPOCH":"2026-03-05T12:28:38.501184","MEAN_MOTION":14.34886846,"ECCENTRICITY":0.004832,"INCLINATION":99.0991,"RA_OF_ASC_NODE":77.6286,"ARG_OF_PERICENTER":359.4459,"MEAN_ANOMALY":152.1979,"EPHEMERIS_TYPE":0,"CLASSIFICATION_TYPE":"U","NORAD_CAT_ID":35210,"ELEMENT_SET_NO":999,"REV_AT_EPOCH":91309,"BSTAR":0.003249,"MEAN_MOTION_DOT":9.318e-5,"MEAN_MOTION_DDOT":0},{"OBJECT_NAME":"FENGYUN 1C DEB","OBJECT_ID":"1999-025DPZ","EPOCH":"2026-02-19T14:36:21.312864","MEAN_MOTION":13.57773694,"ECCENTRICITY":0.0296472,"INCLINATION":101.8784,"RA_OF_ASC_NODE":345.0381,"ARG_OF_PERICENTER":135.8934,"MEAN_ANOMALY":226.6257,"EPHEMERIS_TYPE":0,"CLASSIFICATION_TYPE":"U","NORAD_CAT_ID":35217,"ELEMENT_SET_NO":999,"REV_AT_EPOCH":62154,"BSTAR":0.0018869,"MEAN_MOTION_DOT":1.75e-5,"MEAN_MOTION_DDOT":0},{"OBJECT_NAME":"FENGYUN 1C DEB","OBJECT_ID":"1999-025DQC","EPOCH":"2026-03-06T03:21:38.378592","MEAN_MOTION":14.23250546,"ECCENTRICITY":0.0044268,"INCLINATION":99.0185,"RA_OF_ASC_NODE":142.2185,"ARG_OF_PERICENTER":72.2357,"MEAN_ANOMALY":288.3644,"EPHEMERIS_TYPE":0,"CLASSIFICATION_TYPE":"U","NORAD_CAT_ID":35220,"ELEMENT_SET_NO":999,"REV_AT_EPOCH":64369,"BSTAR":0.0015147507,"MEAN_MOTION_DOT":3.418e-5,"MEAN_MOTION_DDOT":0},{"OBJECT_NAME":"FENGYUN 1C DEB","OBJECT_ID":"1999-025DQF","EPOCH":"2026-03-04T10:22:03.499680","MEAN_MOTION":14.90255511,"ECCENTRICITY":0.01274274,"INCLINATION":98.9799,"RA_OF_ASC_NODE":61.8707,"ARG_OF_PERICENTER":64.8949,"MEAN_ANOMALY":296.5425,"EPHEMERIS_TYPE":0,"CLASSIFICATION_TYPE":"U","NORAD_CAT_ID":35223,"ELEMENT_SET_NO":999,"REV_AT_EPOCH":95098,"BSTAR":0.0011353242,"MEAN_MOTION_DOT":0.00012796,"MEAN_MOTION_DDOT":0},{"OBJECT_NAME":"FENGYUN 1C DEB","OBJECT_ID":"1999-025DQM","EPOCH":"2026-03-04T10:46:36.629184","MEAN_MOTION":14.65568097,"ECCENTRICITY":0.00396325,"INCLINATION":98.4482,"RA_OF_ASC_NODE":149.4637,"ARG_OF_PERICENTER":317.3035,"MEAN_ANOMALY":42.5089,"EPHEMERIS_TYPE":0,"CLASSIFICATION_TYPE":"U","NORAD_CAT_ID":35229,"ELEMENT_SET_NO":999,"REV_AT_EPOCH":65701,"BSTAR":0.0075659273,"MEAN_MOTION_DOT":0.00041725,"MEAN_MOTION_DDOT":0},{"OBJECT_NAME":"FENGYUN 1C DEB","OBJECT_ID":"1999-025DQP","EPOCH":"2026-03-06T08:18:18.880704","MEAN_MOTION":14.14535073,"ECCENTRICITY":0.00365244,"INCLINATION":98.7068,"RA_OF_ASC_NODE":111.4964,"ARG_OF_PERICENTER":204.7787,"MEAN_ANOMALY":155.1633,"EPHEMERIS_TYPE":0,"CLASSIFICATION_TYPE":"U","NORAD_CAT_ID":35231,"ELEMENT_SET_NO":999,"REV_AT_EPOCH":92684,"BSTAR":1.3301545e-5,"MEAN_MOTION_DOT":-1.7e-7,"MEAN_MOTION_DDOT":0},{"OBJECT_NAME":"FENGYUN 1C DEB","OBJECT_ID":"1999-025DQR","EPOCH":"2026-03-06T05:46:16.944096","MEAN_MOTION":14.4322726,"ECCENTRICITY":0.00373153,"INCLINATION":98.766,"RA_OF_ASC_NODE":171.7047,"ARG_OF_PERICENTER":14.7229,"MEAN_ANOMALY":16.1195,"EPHEMERIS_TYPE":0,"CLASSIFICATION_TYPE":"U","NORAD_CAT_ID":35233,"ELEMENT_SET_NO":999,"REV_AT_EPOCH":92380,"BSTAR":0.0021361729,"MEAN_MOTION_DOT":7.207e-5,"MEAN_MOTION_DDOT":0}]
